[
    {
        "Altitude(m)": 617719.7954208135,
        "Argument of Periapsis(deg)": 0.0,
        "Eccentricity": 0.0,
        "Inclination(deg)": 60.0,
        "Latitude(deg)": -41.10270637159391,
        "Longitude(deg)": -74.90535429172455,
        "Mean Anomaly(deg)": -130.90909999999997,
        "RAAN(deg)": 175.0,
        "Satellite Name": "Test1 784",
        "Satellite Number": 784,
        "Semi-Major Axis(m)": 6980739.136638005,
        "Time(s)": 0
    },
    {
        "Altitude(m)": 617911.3313814978,
        "Argument of Periapsis(deg)": 0.00010418945913296404,
        "Eccentricity": 0.0,
        "Inclination(deg)": 60.0,
        "Latitude(deg)": -41.565898351597816,
        "Longitude(deg)": -74.40094725111389,
        "Mean Anomaly(deg)": -130.28899385453815,
        "RAAN(deg)": 174.99957995086024,
        "Satellite Name": "Test1 784",
        "Satellite Number": 784,
        "Semi-Major Axis(m)": 6980739.136638005,
        "Time(s)": 10
    }
]